DUBAISAT-1              
1 35682U 09041B   26199.29120930  .00000358  00000+0  60584-4 0  9993
2 35682  98.0089 332.2152 0009679 338.2584  21.8213 14.75169246909686
OCEANSAT-2              
1 35931U 09051A   26199.58195387 -.00000015  00000+0  15566-4 0  9992
2 35931  98.2322 183.2989 0017563 143.7770 216.4590 13.99655931883726
WORLDVIEW-2 (WV-2)      
1 35946U 09055A   26199.61660381  .00000034  00000+0  25526-4 0  9994
2 35946  98.4754 272.6383 0005431 121.6859 238.4859 14.37907488880165
SMOS                    
1 36036U 09059A   26199.46278015  .00000103  00000+0  46706-4 0  9991
2 36036  98.4431  26.3394 0001181  97.6925 262.4397 14.39737049877951
YAOGAN-7                
1 36110U 09069A   26199.63639401  .00000174  00000+0  31314-4 0  9991
2 36110  98.0027  85.3033 0023319 299.7414  60.1476 14.78037203894274
TANDEM-X                
1 36605U 10030A   26199.41329616  .00000080  00000+0  70265-5 0  9995
2 36605  97.4455 206.6773 0001893  96.8961 263.2489 15.19148720891388
CARTOSAT-2B             
1 36795U 10035A   26199.67129419  .00000246  00000+0  40742-4 0  9997
2 36795  97.9931 250.0166 0012732  89.7749 270.4921 14.78653291864503
YAOGAN-10               
1 36834U 10038A   26199.61711932  .00000442  00000+0  57605-4 0  9999
2 36834  97.8964 222.7712 0001588  80.6894  30.4579 14.85433942861870
COSMO-SKYMED 4          
1 37216U 10060A   26199.63362769 -.00000093  00000+0 -50746-5 0  9995
2 37216  97.8894  22.7782 0001524  85.0247 275.1140 14.82149851849220
RESOURCESAT-2           
1 37387U 11015A   26199.62053185  .00000026  00000+0  32179-4 0  9996
2 37387  98.7629 266.8426 0011757 161.5640 198.5965 14.21600035790640
HAIYANG-2A              
1 37781U 11043A   26199.57247766 -.00000132  00000+0 -96070-4 0  9999
2 37781  99.3401 201.5268 0002022  22.8979 337.2260 13.73204958750963
RASAT                   
1 37791U 11044D   26199.60427355  .00000493  00000+0  93821-4 0  9998
2 37791  98.0583 290.5223 0021961  92.5789  14.2488 14.68195752797798
SRMSAT                  
1 37841U 11058D   26199.48245728  .00000322  00000+0  30967-4 0  9990
2 37841  19.9704 230.0483 0011664 187.3521 320.5069 14.11581472762240
PLEIADES 1A             
1 38012U 11076F   26199.62324985  .00000448  00000+0  10621-3 0  9993
2 38012  98.1966 274.3022 0001644  77.9105  32.2112 14.58549097776574
ZIYUAN 1-02C (ZY 1-02C) 
1 38038U 11079A   26199.67778230  .00000447  00000+0  16117-3 0  9990
2 38038  98.4054 266.3265 0005812 203.0424 308.3934 14.38238402763736
ARIRANG-3 (KOMPSAT-3)   
1 38338U 12025B   26199.64734207  .00000165  00000+0  41909-4 0  9993
2 38338  98.1187 156.5681 0006013  29.5038 330.6502 14.62230555755942
EXACTVIEW-1 (ADS-1B)    
1 38709U 12039C   26199.55690004  .00000039  00000+0  36368-4 0  9999
2 38709  98.9809 317.6601 0011945  82.7698 277.4838 14.24992700727177
SPOT 6                  
1 38755U 12047A   26199.61768125  .00000279  00000+0  69862-4 0  9997
2 38755  98.2103 266.5563 0001118  90.0593 270.0734 14.58540455737633
PLEIADES 1B             
1 39019U 12068A   26199.63628834  .00000309  00000+0  76220-4 0  9998
2 39019  98.1937 274.2531 0001525  78.0514 282.0856 14.58536068725431
GOKTURK 2               
1 39030U 12073A   26199.61352980 -.00000118  00000+0 -10417-4 0  9997
2 39030  97.6807  35.4680 0001018 101.4560 258.6764 14.75569107729143
LANDSAT 8               
1 39084U 13008A   26199.61290142  .00000089  00000+0  29817-4 0  9995
2 39084  98.2288 269.3726 0001360  91.4191 268.7164 14.57095406702478
SARAL                   
1 39086U 13009A   26199.60392966  .00000014  00000+0  21307-4 0  9998
2 39086  98.5558  25.7741 0001909 158.9534 201.1729 14.32896305700109
GAOFEN-1                
1 39150U 13018A   26199.64279211  .00000897  00000+0  13575-3 0  9997
2 39150  97.9081 271.0693 0017370 160.2095 199.9792 14.76523214712880
VNREDSAT 1              
1 39160U 13021B   26199.57823801  .00000355  00000+0  74904-4 0  9997
2 39160  97.9059 251.7874 0001566  81.1916 278.9465 14.64886358704889
ARIRANG-5 (KOMPSAT-5)   
1 39227U 13042A   26199.62450752 -.00000145  00000+0 -60437-5 0  9997
2 39227  97.6202  25.8831 0005027  48.8495 311.3164 15.04495011708587
SKYSAT-A                
1 39418U 13066C   26199.07553485  .00001492  00000+0  87414-4 0  9998
2 39418  97.3800 247.4884 0020728 203.0344 156.9960 15.13124135693152
DUBAISAT-2              
1 39419U 13066D   26199.60774812  .00001313  00000+0  83705-4 0  9998
2 39419  97.4581 188.9358 0009150 289.8621  70.1623 15.10386141691134
GPM-CORE                
1 39574U 14009C   26199.54138147  .00003102  00000+0  70667-4 0  9997
2 39574  64.9695 203.0710 0010910 263.0564  96.9336 15.45066298702651
SENTINEL-1A             
1 39634U 14016A   26199.63607448 -.00000543  00000+0 -10553-3 0  9992
2 39634  98.1728 206.7092 0001446  81.4050 278.7313 14.59173106654600
KAZEOSAT 1              
1 39731U 14024A   26199.66149091  .00000345  00000+0  11798-3 0  9997
2 39731  98.3193 271.3235 0001205  84.5035 275.6292 14.42039122643097
