OBJECT_NAME,OBJECT_ID,EPOCH,MEAN_MOTION,ECCENTRICITY,INCLINATION,RA_OF_ASC_NODE,ARG_OF_PERICENTER,MEAN_ANOMALY,EPHEMERIS_TYPE,CLASSIFICATION_TYPE,NORAD_CAT_ID,ELEMENT_SET_NO,REV_AT_EPOCH,BSTAR,MEAN_MOTION_DOT,MEAN_MOTION_DDOT
DUBAISAT-1,2009-041B,2026-07-18T06:59:20.483520,14.75169246,.00096799,98.0089,332.2152,338.2584,21.8213,0,U,35682,999,90968,.60584404E-4,.358E-5,0
OCEANSAT-2,2009-051A,2026-07-18T13:58:00.814368,13.99655931,.00175636,98.2322,183.2989,143.7770,216.4590,0,U,35931,999,88372,.15565732E-4,-.15E-6,0
WORLDVIEW-2 (WV-2),2009-055A,2026-07-18T14:47:54.569184,14.37907488,.00054316,98.4754,272.6383,121.6859,238.4859,0,U,35946,999,88016,.25525938E-4,.34E-6,0
SMOS,2009-059A,2026-07-18T11:06:24.204960,14.39737049,.00011817,98.4431,26.3394,97.6925,262.4397,0,U,36036,999,87795,.46705804E-4,.103E-5,0
YAOGAN-7,2009-069A,2026-07-18T15:16:24.442464,14.78037203,.00233197,98.0027,85.3033,299.7414,60.1476,0,U,36110,999,89427,.31314483E-4,.174E-5,0
TANDEM-X,2010-030A,2026-07-18T09:55:08.788224,15.19148720,.0001893,97.4455,206.6773,96.8961,263.2489,0,U,36605,999,89138,.7026452E-5,.8E-6,0
CARTOSAT-2B,2010-035A,2026-07-18T16:06:39.818016,14.78653291,.00127328,97.9931,250.0166,89.7749,270.4921,0,U,36795,999,86450,.40742435E-4,.246E-5,0
YAOGAN-10,2010-038A,2026-07-18T14:48:39.109248,14.85433942,.0001588,97.8964,222.7712,80.6894,30.4579,0,U,36834,999,86187,.57604953E-4,.442E-5,0
COSMO-SKYMED 4,2010-060A,2026-07-18T15:12:25.432416,14.82149851,.00015242,97.8894,22.7782,85.0247,275.1140,0,U,37216,999,84922,-.5074567E-5,-.93E-6,0
RESOURCESAT-2,2011-015A,2026-07-18T14:53:33.951840,14.21600035,.00117578,98.7629,266.8426,161.5640,198.5965,0,U,37387,999,79064,.32179308E-4,.26E-6,0
HAIYANG-2A,2011-043A,2026-07-18T13:44:22.069824,13.73204958,.00020226,99.3401,201.5268,22.8979,337.2260,0,U,37781,999,75096,-.96070297E-4,-.132E-5,0
RASAT,2011-044D,2026-07-18T14:30:09.234720,14.68195752,.00219616,98.0583,290.5223,92.5789,14.2488,0,U,37791,999,79779,.93821014E-4,.493E-5,0
SRMSAT,2011-058D,2026-07-18T11:34:44.308992,14.11581472,.00116646,19.9704,230.0483,187.3521,320.5069,0,U,37841,999,76224,.30967464E-4,.322E-5,0
PLEIADES 1A,2011-076F,2026-07-18T14:57:28.787040,14.58549097,.00016447,98.1966,274.3022,77.9105,32.2112,0,U,38012,999,77657,.10620879E-3,.448E-5,0
ZIYUAN 1-02C (ZY 1-02C),2011-079A,2026-07-18T16:16:00.390720,14.38238402,.00058124,98.4054,266.3265,203.0424,308.3934,0,U,38038,999,76373,.16116809E-3,.447E-5,0
ARIRANG-3 (KOMPSAT-3),2012-025B,2026-07-18T15:32:10.354848,14.62230555,.00060132,98.1187,156.5681,29.5038,330.6502,0,U,38338,999,75594,.41908997E-4,.165E-5,0
EXACTVIEW-1 (ADS-1B),2012-039C,2026-07-18T13:21:56.163456,14.24992700,.00119454,98.9809,317.6601,82.7698,277.4838,0,U,38709,999,72717,.36367992E-4,.39E-6,0
SPOT 6,2012-047A,2026-07-18T14:49:27.660000,14.58540455,.00011183,98.2103,266.5563,90.0593,270.0734,0,U,38755,999,73763,.69861525E-4,.279E-5,0
PLEIADES 1B,2012-068A,2026-07-18T15:16:15.312576,14.58536068,.00015254,98.1937,274.2531,78.0514,282.0856,0,U,39019,999,72543,.76219853E-4,.309E-5,0
GOKTURK 2,2012-073A,2026-07-18T14:43:28.974720,14.75569107,.00010185,97.6807,35.4680,101.4560,258.6764,0,U,39030,999,72914,-.10416743E-4,-.118E-5,0
LANDSAT 8,2013-008A,2026-07-18T14:42:34.682688,14.57095406,.00013606,98.2288,269.3726,91.4191,268.7164,0,U,39084,999,70247,.29816666E-4,.89E-6,0
SARAL,2013-009A,2026-07-18T14:29:39.522624,14.32896305,.00019091,98.5558,25.7741,158.9534,201.1729,0,U,39086,999,70010,.21307006E-4,.14E-6,0
GAOFEN-1,2013-018A,2026-07-18T15:25:37.238304,14.76523214,.00173703,97.9081,271.0693,160.2095,199.9792,0,U,39150,999,71288,.13574742E-3,.897E-5,0
VNREDSAT 1,2013-021B,2026-07-18T13:52:39.764064,14.64886358,.00015665,97.9059,251.7874,81.1916,278.9465,0,U,39160,999,70488,.74904015E-4,.355E-5,0
ARIRANG-5 (KOMPSAT-5),2013-042A,2026-07-18T14:59:17.449728,15.04495011,.00050272,97.6202,25.8831,48.8495,311.3164,0,U,39227,999,70858,-.6043673E-5,-.145E-5,0
SKYSAT-A,2013-066C,2026-07-18T01:48:46.211040,15.13124135,.00207284,97.3800,247.4884,203.0344,156.9960,0,U,39418,999,69315,.87414229E-4,.1492E-4,0
DUBAISAT-2,2013-066D,2026-07-18T14:35:09.437568,15.10386141,.000915,97.4581,188.9358,289.8621,70.1623,0,U,39419,999,69113,.83704524E-4,.1313E-4,0
GPM-CORE,2014-009C,2026-07-18T12:59:35.359008,15.45066298,.00109107,64.9695,203.0710,263.0564,96.9336,0,U,39574,999,70265,.70666867E-4,.3102E-4,0
SENTINEL-1A,2014-016A,2026-07-18T15:15:56.835072,14.59173106,.00014464,98.1728,206.7092,81.4050,278.7313,0,U,39634,999,65460,-.10553204E-3,-.543E-5,0
KAZEOSAT 1,2014-024A,2026-07-18T15:52:32.814624,14.42039122,.00012052,98.3193,271.3235,84.5035,275.6292,0,U,39731,999,64309,.11797658E-3,.345E-5,0
